{
  "type": "FeatureCollection",
  "features": [
    {
      "type": "Feature",
      "properties": {
        "norad_id": 28899,
        "name": "INMARSAT 4-F2 (SOUTHPAN/PRN 122)",
        "group": "gnss",
        "lat": 4.449745031577689,
        "lon": 157.9047608632328,
        "alt_km": 35790.118237804556,
        "timestamp": "2025-12-21T18:54:58.738537+00:00",
        "meta_object_name": "INMARSAT 4-F2 (SOUTHPAN/PRN 122)",
        "meta_object_id": "2005-044A",
        "meta_epoch": "2025-12-21T08:44:39.966144",
        "meta_mean_motion": 1.00272429,
        "meta_eccentricity": 0.0002238,
        "meta_inclination": 4.8615,
        "meta_ra_of_asc_node": 43.7082,
        "meta_arg_of_pericenter": 234.2442,
        "meta_mean_anomaly": 86.904,
        "meta_ephemeris_type": 0,
        "meta_classification_type": "U",
        "meta_norad_cat_id": 28899,
        "meta_element_set_no": 999,
        "meta_rev_at_epoch": 7373,
        "meta_bstar": 0,
        "meta_mean_motion_dot": -2.41e-06,
        "meta_mean_motion_ddot": 0,
        "tle_line1": "1 28899U 05044A   25355.36435146 -.00000241  00000+0  00000+0 0  9997",
        "tle_line2": "2 28899   4.8615  43.7082 0002238 234.2442  86.9040  1.00272429 73736"
      },
      "geometry": {
        "type": "Point",
        "coordinates": [
          157.9047608632328,
          4.449745031577689
        ]
      }
    },
    {
      "type": "Feature",
      "properties": {
        "norad_id": 29486,
        "name": "GPS BIIRM-2 (PRN 31)",
        "group": "gnss",
        "lat": -22.526643481991126,
        "lon": -4.530189450699566,
        "alt_km": 20445.32059899222,
        "timestamp": "2025-12-21T18:54:58.738550+00:00",
        "meta_object_name": "GPS BIIRM-2 (PRN 31)",
        "meta_object_id": "2006-042A",
        "meta_epoch": "2025-12-21T12:25:39.335232",
        "meta_mean_motion": 2.00553827,
        "meta_eccentricity": 0.01073004,
        "meta_inclination": 54.6951,
        "meta_ra_of_asc_node": 158.3926,
        "meta_arg_of_pericenter": 52.1628,
        "meta_mean_anomaly": 320.0686,
        "meta_ephemeris_type": 0,
        "meta_classification_type": "U",
        "meta_norad_cat_id": 29486,
        "meta_element_set_no": 999,
        "meta_rev_at_epoch": 14083,
        "meta_bstar": 0,
        "meta_mean_motion_dot": 7.1e-07,
        "meta_mean_motion_ddot": 0,
        "tle_line1": "1 29486U 06042A   25355.51781638  .00000071  00000+0  00000+0 0  9996",
        "tle_line2": "2 29486  54.6951 158.3926 0107300  52.1628 320.0686  2.00553827140833"
      },
      "geometry": {
        "type": "Point",
        "coordinates": [
          -4.530189450699566,
          -22.526643481991126
        ]
      }
    },
    {
      "type": "Feature",
      "properties": {
        "norad_id": 29601,
        "name": "GPS BIIRM-3 (PRN 12)",
        "group": "gnss",
        "lat": -54.72883572070109,
        "lon": 123.60142484020456,
        "alt_km": 20420.620066394258,
        "timestamp": "2025-12-21T18:54:58.738577+00:00",
        "meta_object_name": "GPS BIIRM-3 (PRN 12)",
        "meta_object_id": "2006-052A",
        "meta_epoch": "2025-12-20T22:09:19.492992",
        "meta_mean_motion": 2.00574173,
        "meta_eccentricity": 0.0087999,
        "meta_inclination": 54.9689,
        "meta_ra_of_asc_node": 221.0734,
        "meta_arg_of_pericenter": 87.5315,
        "meta_mean_anomaly": 273.5726,
        "meta_ephemeris_type": 0,
        "meta_classification_type": "U",
        "meta_norad_cat_id": 29601,
        "meta_element_set_no": 999,
        "meta_rev_at_epoch": 13983,
        "meta_bstar": 0,
        "meta_mean_motion_dot": 7.4e-07,
        "meta_mean_motion_ddot": 0,
        "tle_line1": "1 29601U 06052A   25354.92314228  .00000074  00000+0  00000+0 0  9990",
        "tle_line2": "2 29601  54.9689 221.0734 0087999  87.5315 273.5726  2.00574173139836"
      },
      "geometry": {
        "type": "Point",
        "coordinates": [
          123.60142484020456,
          -54.72883572070109
        ]
      }
    },
    {
      "type": "Feature",
      "properties": {
        "norad_id": 32260,
        "name": "GPS BIIRM-4 (PRN 15)",
        "group": "gnss",
        "lat": 34.32038972821244,
        "lon": 117.14539042645046,
        "alt_km": 19846.884206246097,
        "timestamp": "2025-12-21T18:54:58.738591+00:00",
        "meta_object_name": "GPS BIIRM-4 (PRN 15)",
        "meta_object_id": "2007-047A",
        "meta_epoch": "2025-12-19T17:36:20.095488",
        "meta_mean_motion": 2.00564284,
        "meta_eccentricity": 0.01640625,
        "meta_inclination": 53.9598,
        "meta_ra_of_asc_node": 87.4696,
        "meta_arg_of_pericenter": 85.3303,
        "meta_mean_anomaly": 276.5412,
        "meta_ephemeris_type": 0,
        "meta_classification_type": "U",
        "meta_norad_cat_id": 32260,
        "meta_element_set_no": 999,
        "meta_rev_at_epoch": 13321,
        "meta_bstar": 0,
        "meta_mean_motion_dot": -3.5e-07,
        "meta_mean_motion_ddot": 0,
        "tle_line1": "1 32260U 07047A   25353.73356592 -.00000035  00000+0  00000+0 0  9996",
        "tle_line2": "2 32260  53.9598  87.4696 0164062  85.3303 276.5412  2.00564284133213"
      },
      "geometry": {
        "type": "Point",
        "coordinates": [
          117.14539042645046,
          34.32038972821244
        ]
      }
    },
    {
      "type": "Feature",
      "properties": {
        "norad_id": 32275,
        "name": "COSMOS 2433 (720)",
        "group": "gnss",
        "lat": -12.186947460376436,
        "lon": 147.48684524501195,
        "alt_km": 19125.64739440068,
        "timestamp": "2025-12-21T18:54:58.738603+00:00",
        "meta_object_name": "COSMOS 2433 (720)",
        "meta_object_id": "2007-052A",
        "meta_epoch": "2025-12-21T01:36:08.610912",
        "meta_mean_motion": 2.13104226,
        "meta_eccentricity": 0.00051868,
        "meta_inclination": 65.6786,
        "meta_ra_of_asc_node": 321.9257,
        "meta_arg_of_pericenter": 255.4545,
        "meta_mean_anomaly": 104.4812,
        "meta_ephemeris_type": 0,
        "meta_classification_type": "U",
        "meta_norad_cat_id": 32275,
        "meta_element_set_no": 999,
        "meta_rev_at_epoch": 14126,
        "meta_bstar": 0,
        "meta_mean_motion_dot": -4.8e-07,
        "meta_mean_motion_ddot": 0,
        "tle_line1": "1 32275U 07052A   25355.06676633 -.00000048  00000+0  00000+0 0  9991",
        "tle_line2": "2 32275  65.6786 321.9257 0005186 255.4545 104.4812  2.13104226141263"
      },
      "geometry": {
        "type": "Point",
        "coordinates": [
          147.48684524501195,
          -12.186947460376436
        ]
      }
    },
    {
      "type": "Feature",
      "properties": {
        "norad_id": 32276,
        "name": "COSMOS 2432 (719)",
        "group": "gnss",
        "lat": 37.68618908837544,
        "lon": 121.58628670728433,
        "alt_km": 19154.363491796612,
        "timestamp": "2025-12-21T18:54:58.738615+00:00",
        "meta_object_name": "COSMOS 2432 (719)",
        "meta_object_id": "2007-052B",
        "meta_epoch": "2025-12-21T05:56:02.961600",
        "meta_mean_motion": 2.13103424,
        "meta_eccentricity": 0.00113369,
        "meta_inclination": 65.6945,
        "meta_ra_of_asc_node": 322.044,
        "meta_arg_of_pericenter": 314.296,
        "meta_mean_anomaly": 128.5462,
        "meta_ephemeris_type": 0,
        "meta_classification_type": "U",
        "meta_norad_cat_id": 32276,
        "meta_element_set_no": 999,
        "meta_rev_at_epoch": 14129,
        "meta_bstar": 0,
        "meta_mean_motion_dot": -4.7e-07,
        "meta_mean_motion_ddot": 0,
        "tle_line1": "1 32276U 07052B   25355.24725650 -.00000047  00000+0  00000+0 0  9995",
        "tle_line2": "2 32276  65.6945 322.0440 0011336 314.2960 128.5462  2.13103424141296"
      },
      "geometry": {
        "type": "Point",
        "coordinates": [
          121.58628670728433,
          37.68618908837544
        ]
      }
    },
    {
      "type": "Feature",
      "properties": {
        "norad_id": 32384,
        "name": "GPS BIIRM-5 (PRN 29)",
        "group": "gnss",
        "lat": 3.9977231477194675,
        "lon": 98.48694044949097,
        "alt_km": 20097.010742070754,
        "timestamp": "2025-12-21T18:54:58.738628+00:00",
        "meta_object_name": "GPS BIIRM-5 (PRN 29)",
        "meta_object_id": "2007-062A",
        "meta_epoch": "2025-12-19T04:08:10.010976",
        "meta_mean_motion": 2.00577702,
        "meta_eccentricity": 0.00322663,
        "meta_inclination": 55.1765,
        "meta_ra_of_asc_node": 281.388,
        "meta_arg_of_pericenter": 162.2119,
        "meta_mean_anomaly": 283.9132,
        "meta_ephemeris_type": 0,
        "meta_classification_type": "U",
        "meta_norad_cat_id": 32384,
        "meta_element_set_no": 999,
        "meta_rev_at_epoch": 13190,
        "meta_bstar": 0,
        "meta_mean_motion_dot": -3.8e-07,
        "meta_mean_motion_ddot": 0,
        "tle_line1": "1 32384U 07062A   25353.17233809 -.00000038  00000+0  00000+0 0  9996",
        "tle_line2": "2 32384  55.1765 281.3880 0032266 162.2119 283.9132  2.00577702131904"
      },
      "geometry": {
        "type": "Point",
        "coordinates": [
          98.48694044949097,
          3.9977231477194675
        ]
      }
    }
  ]
}